TDRS 13                 
1 42915U 17047A   26178.16237581 -.00000090  00000+0  00000+0 0  9995
2 42915   3.4540   2.9864 0015097 107.3050 212.0144  1.00272691 32441
QZS-3 (MICHIBIKI-3)     
1 42917U 17048A   26178.18984928 -.00000336  00000+0  00000+0 0  9997
2 42917   0.0683 147.5285 0002290 304.9762  18.1923  1.00271889 32362
AMAZONAS 5              
1 42934U 17053A   26177.82627668 -.00000271  00000+0  00000+0 0  9995
2 42934   0.0317 326.0602 0001938  89.2725  96.0689  1.00272475 32144
ASIASAT 9               
1 42942U 17057A   26178.02892113  .00000000  00000+0  00000+0 0  9999
2 42942   0.0435  56.2206 0002340  35.2991 316.1973  1.00263802 31954
INTELSAT 37E (IS-37E)   
1 42950U 17059A   26178.16107581 -.00000129  00000+0  00000+0 0  9996
2 42950   0.0043  88.3882 0002893   6.2338 220.6422  1.00271499 32163
BSAT-4A                 
1 42951U 17059B   26178.04380015 -.00000339  00000+0  00000+0 0  9992
2 42951   0.0362  18.0175 0004230  56.6248 326.1138  1.00271093 31894
QZS-4 (MICHIBIKI-4)     
1 42965U 17062A   26177.33476632 -.00000355  00000+0  00000+0 0  9991
2 42965  40.1041 343.3683 0746721 268.2556 281.2054  1.00296962 31897
SES-11 (ECHOSTAR 105)   
1 42967U 17063A   26178.21516858 -.00000078  00000+0  00000+0 0  9999
2 42967   0.0308 307.4613 0002995 145.4845 154.8995  1.00271773 31824
KOREASAT 5A             
1 42984U 17067A   26178.04449348 -.00000347  00000+0  00000+0 0  9991
2 42984   0.0106 349.6971 0000925  98.6836 315.9519  1.00272579 31629
ALCOMSAT 1              
1 43039U 17078A   26178.01718091  .00000000  00000+0  00000+0 0  9991
2 43039   0.0210  18.7955 0002671  73.1108 164.6124  1.00269936 31391
SBIRS GEO-3 (USA 282)   
1 43162U 18009A   26178.20442447  .00000138  00000+0  00000+0 0  9995
2 43162   2.1911  12.5803 0002303  76.3474 100.5804  1.00272800 30944
AL YAH 3                
1 43174U 18012A   26178.16064248 -.00000145  00000+0  00000+0 0  9995
2 43174   1.5773  83.0021 0004164  10.1922 219.7979  1.00272089 30947
SES-14                  
1 43175U 18012B   26178.20183661 -.00000267  00000+0  00000+0 0  9997
2 43175   0.0155  23.9304 0001307  75.4288 201.1145  1.00271580  7127
GOES 17                 
1 43226U 18022A   26178.19558528 -.00000172  00000+0  00000+0 0  9996
2 43226   0.9620  85.5465 0000712  25.2624 145.4023  1.00272677 30521
HISPASAT 30W-6          
1 43228U 18023A   26177.44581597 -.00000205  00000+0  00000+0 0  9995
2 43228   0.0436  43.2096 0005973  33.8480 327.9970  1.00273554 30498
SUPERBIRD-B3            
1 43271U 18033A   26178.19671110 -.00000080  00000+0  00000+0 0  9999
2 43271   0.0167 350.2450 0001182 101.8683  56.0154  1.00273734 30169
HYLAS 4                 
1 43272U 18033B   26178.19628168  .00000000  00000+0  00000+0 0  9996
2 43272   0.0274  22.9800 0001210 110.9678 178.4956  1.00264722 30164
IRNSS-1I                
1 43286U 18035A   26175.79975266  .00000066  00000+0  00000+0 0  9992
2 43286  28.7725  74.0767 0017621 182.3144 359.3363  1.00275960 30158
USA 283                 
1 43339U 18036A   26176.40866242  .00000000  00000+0  00000+0 0  9992
2 43339   0.0077   1.2048 0000352  95.8048  97.7845  1.00269479 25372
COSMOS 2526             
1 43432U 18037A   26178.18993595 -.00000333  00000+0  00000+0 0  9996
2 43432   0.0331  81.5419 0000762 169.0548 221.1432  1.00271641 30067
APSTAR-6C               
1 43450U 18041A   26177.90603953 -.00000306  00000+0  00000+0 0  9996
2 43450   0.0216 354.4466 0000708  17.5724   3.1934  1.00271209 29902
BANGABANDHUSAT-1        
1 43463U 18044A   26178.04562015 -.00000351  00000+0  00000+0 0  9992
2 43463   0.0164  53.4954 0002066  45.8280 311.3631  1.00272346 29806
SES-12                  
1 43488U 18049A   26178.11217736 -.00000258  00000+0  00000+0 0  9995
2 43488   0.0122   7.5043 0000395 257.5459 145.5564  1.00270359 29511
FENGYUN 2H              
1 43491U 18050A   26178.10905734 -.00000120  00000+0  00000+0 0  9990
2 43491   3.0571  78.9644 0001699 123.0661 191.7900  1.00269779 29538
BEIDOU-2 IGSO-7         
1 43539U 18057A   26177.50590209 -.00000028  00000+0  00000+0 0  9997
2 43539  55.1970 162.9757 0104768 237.9790 164.9478  1.00249004 29227
TELSTAR 19V             
1 43562U 18059A   26178.22345094 -.00000268  00000+0  00000+0 0  9991
2 43562   0.0372 147.6321 0003034 328.9138 176.2244  1.00270378 29243
TELKOM 4 (MERAH PUTIH)  
1 43587U 18064A   26178.04345348 -.00000332  00000+0  00000+0 0  9998
2 43587   0.0170  66.7361 0001670  51.2933 280.7699  1.00272463 28975
TELSTAR 18V             
1 43611U 18069A   26177.97811821 -.00000282  00000+0  00000+0 0  9990
2 43611   0.0171 335.0364 0002243 116.1150 314.0507  1.00273183 28731
AZERSPACE 2 (IS-38)     
1 43632U 18074A   26178.17355587  .00000000  00000+0  00000+0 0  9991
2 43632   0.0274  17.8346 0001709  80.2276 284.8179  1.00270667 28541
HORIZONS-3E             
1 43633U 18074B   26177.91297288 -.00000019  00000+0  00000+0 0  9997
2 43633   0.0051 291.0865 0000627  17.8683 103.7557  1.00268864 28436
AEHF-4 (USA 288)        
1 43651U 18079A   26178.18447569 -.00000264  00000+0  00000+0 0  9993
2 43651   1.4348   4.8249 0060082 355.9076 273.4428  1.00269958 28391
BEIDOU-3 G1             
1 43683U 18085A   26178.19636443 -.00000100  00000+0  00000+0 0  9996
2 43683   2.8940  97.1046 0008565 351.6888  57.1335  1.00271091 28161
